norad_id,name,regime,epoch,line1,line2,inclination,eccentricity,mean_motion,raan,arg_pericenter,mean_anomaly
19751,COSMOS 1989 (ETALON 1),NSO,91182.19599791,1 19751U 89001  C 91182.19599791  .00000019 +00000-0 +99999-4 0 00712\,2 19751 064.8710 146.1739 0010173 250.3199 109.5467 02.13156024019245,64.871,0.0010173,2.13156024,146.1739,250.3199,109.5467
19751,COSMOS 1989 (ETALON 1),NSO,91183.13428544,1 19751U 89001  C 91183.13428544  .00000019 +00000-0 +99999-4 0 00725\,2 19751 064.8710 146.1426 0010148 250.4822 109.3890 02.13156044019266,64.871,0.0010148,2.13156044,146.1426,250.4822,109.389
19751,COSMOS 1989 (ETALON 1),NSO,91184.07257088,1 19751U 89001  C 91184.07257088  .00000061 +00000-0 +00000-4 0 00735\,2 19751 064.8713 146.1120 0010148 250.1380 109.7384 02.13156106019289,64.8713,0.0010148,2.13156106,146.112,250.138,109.7384
19751,COSMOS 1989 (ETALON 1),NSO,91185.01085266,1 19751U 89001  C 91185.01085266  .00000019 +00000-0 +99999-4 0 00746\,2 19751 064.8727 146.0794 0010143 250.1205 109.7573 02.13156143019305,64.8727,0.0010143,2.13156143,146.0794,250.1205,109.7573
19751,COSMOS 1989 (ETALON 1),NSO,91185.47999412,1 19751U 89001  C 91185.47999412  .00000061 +00000-0 +00000-4 0 00813\,2 19751 064.8719 146.0658 0010127 250.1192 109.7581 02.13156192019316,64.8719,0.0010127,2.13156192,146.0658,250.1192,109.7581
19751,COSMOS 1989 (ETALON 1),NSO,91186.41827574,1 19751U 89001  C 91186.41827574  .00000019 +00000-0 +99999-4 0 00769\,2 19751 064.8721 146.0350 0010145 250.1127 109.7676 02.13156278019338,64.8721,0.0010145,2.13156278,146.035,250.1127,109.7676
19751,COSMOS 1989 (ETALON 1),NSO,91188.29482706,1 19751U 89001  C 91188.29482706  .00000061 +00000-0 +00000-4 0 00808\,2 19751 064.8715 145.9729 0010110 250.1352 109.7374 02.13156315019372,64.8715,0.001011,2.13156315,145.9729,250.1352,109.7374
19751,COSMOS 1989 (ETALON 1),NSO,91188.76396606,1 19751U 89001  C 91188.76396606  .00000019 +00000-0 +99999-4 0 00812\,2 19751 064.8722 145.9587 0010188 249.6113 110.2611 02.13156353019389,64.8722,0.0010188,2.13156353,145.9587,249.6113,110.2611
19751,COSMOS 1989 (ETALON 1),NSO,91189.70223818,1 19751U 89001  C 91189.70223818  .00000061 +00000-0 +00000-4 0 00824\,2 19751 064.8720 145.9282 0010212 249.5771 110.2877 02.13156299019402,64.872,0.0010212,2.13156299,145.9282,249.5771,110.2877
19751,COSMOS 1989 (ETALON 1),NSO,91190.17137757,1 19751U 89001  C 91190.17137757  .00000019 +00000-0 +99999-4 0 00832\,2 19751 064.8714 145.9133 0010242 249.4943 110.3670 02.13156237019418,64.8714,0.0010242,2.13156237,145.9133,249.4943,110.367
19751,COSMOS 1989 (ETALON 1),NSO,91191.10965611,1 19751U 89001  C 91191.10965611  .00000019 +00000-0 +99999-4 0 00845\,2 19751 064.8725 145.8816 0010243 249.4425 110.4161 02.13156209019430,64.8725,0.0010243,2.13156209,145.8816,249.4425,110.4161
19751,COSMOS 1989 (ETALON 1),NSO,91191.10965676,1 19751U 89001  C 91191.10965676  .00000061 +00000-0 +00000-4 0 00848\,2 19751 064.8725 145.8815 0010243 249.4424 110.4161 02.13156210019430,64.8725,0.0010243,2.1315621,145.8815,249.4424,110.4161
19751,COSMOS 1989 (ETALON 1),NSO,91192.04793574,1 19751U 89001  C 91192.04793574  .00000061 +00000-0 +00000-4 0 00860\,2 19751 064.8720 145.8502 0010281 249.1400 110.7153 02.13156113019459,64.872,0.0010281,2.13156113,145.8502,249.14,110.7153
19751,COSMOS 1989 (ETALON 1),NSO,91192.98622316,1 19751U 89001  C 91192.98622316  .00000061 +00000-0 +00000-4 0 00879\,2 19751 064.8728 145.8188 0010257 249.3372 110.5194 02.13156057019472,64.8728,0.0010257,2.13156057,145.8188,249.3372,110.5194
19751,COSMOS 1989 (ETALON 1),NSO,91193.45536466,1 19751U 89001  C 91193.45536466  .00000019 +00000-0 +99999-4 0 00881\,2 19751 064.8744 145.8031 0010166 250.4184 109.4385 02.13156093019480,64.8744,0.0010166,2.13156093,145.8031,250.4184,109.4385
19751,COSMOS 1989 (ETALON 1),NSO,91194.39365319,1 19751U 89001  C 91194.39365319  .00000019 +00000-0 +99999-4 0 00893\,2 19751 064.8749 145.7721 0010166 250.3382 109.5222 02.13156040019505,64.8749,0.0010166,2.1315604,145.7721,250.3382,109.5222
19751,COSMOS 1989 (ETALON 1),NSO,91195.33193945,1 19751U 89001  C 91195.33193945  .00000061 +00000-0 +00000-4 0 00906\,2 19751 064.8746 145.7406 0010174 250.3135 109.5495 02.13155982019525,64.8746,0.0010174,2.13155982,145.7406,250.3135,109.5495
19751,COSMOS 1989 (ETALON 1),NSO,91195.80108513,1 19751U 89001  C 91195.80108513  .00000019 +00000-0 +99999-4 0 00914\,2 19751 064.8746 145.7255 0010173 250.2915 109.5742 02.13155968019531,64.8746,0.0010173,2.13155968,145.7255,250.2915,109.5742
19751,COSMOS 1989 (ETALON 1),NSO,91196.27022952,1 19751U 89001  C 91196.27022952  .00000061 +00000-0 +00000-4 0 00921\,2 19751 064.8742 145.7098 0010179 250.1354 109.7310 02.13155888019549,64.8742,0.0010179,2.13155888,145.7098,250.1354,109.731
19751,COSMOS 1989 (ETALON 1),NSO,91196.73937553,1 19751U 89001  C 91196.73937553  .00000019 +00000-0 +99999-4 0 00933\,2 19751 064.8742 145.6942 0010181 250.1564 109.7141 02.13155901019551,64.8742,0.0010181,2.13155901,145.6942,250.1564,109.7141
19751,COSMOS 1989 (ETALON 1),NSO,91197.67766275,1 19751U 89001  C 91197.67766275  .00000019 +00000-0 +99999-4 0 00949\,2 19751 064.8742 145.6634 0010180 250.1535 109.7197 02.13155876019570,64.8742,0.001018,2.13155876,145.6634,250.1535,109.7197
19751,COSMOS 1989 (ETALON 1),NSO,91198.14680540,1 19751U 89001  C 91198.14680540  .00000061 +00000-0 +00000-4 0 00966\,2 19751 064.8742 145.6477 0010180 250.1530 109.7212 02.13155878019581,64.8742,0.001018,2.13155878,145.6477,250.153,109.7212
19751,COSMOS 1989 (ETALON 1),NSO,91199.08508940,1 19751U 89001  C 91199.08508940  .00000019 +00000-0 +99999-4 0 00972\,2 19751 064.8742 145.6170 0010183 250.0764 109.7987 02.13155871019607,64.8742,0.0010183,2.13155871,145.617,250.0764,109.7987
19751,COSMOS 1989 (ETALON 1),NSO,91199.55423038,1 19751U 89001  C 91199.55423038  .00000061 +00000-0 +00000-4 0 00981\,2 19751 064.8743 145.6013 0010182 250.0742 109.8010 02.13155874019611,64.8743,0.0010182,2.13155874,145.6013,250.0742,109.801
19751,COSMOS 1989 (ETALON 1),NSO,91200.02337186,1 19751U 89001  C 91200.02337186  .00000019 +00000-0 +99999-4 0 00993\,2 19751 064.8726 145.5872 0010234 249.8940 109.9811 02.13155893019620,64.8726,0.0010234,2.13155893,145.5872,249.894,109.9811
19751,COSMOS 1989 (ETALON 1),NSO,91200.49251162,1 19751U 89001  C 91200.49251162  .00000019 +00000-0 +99999-4 0 01006\,2 19751 064.8726 145.5716 0010238 249.8836 109.9905 02.13155902019631,64.8726,0.0010238,2.13155902,145.5716,249.8836,109.9905
19751,COSMOS 1989 (ETALON 1),NSO,91201.43079113,1 19751U 89001  C 91201.43079113  .00000019 +00000-0 +99999-4 0 01016\,2 19751 064.8729 145.5406 0010237 249.8846 109.9875 02.13155917019654,64.8729,0.0010237,2.13155917,145.5406,249.8846,109.9875
19751,COSMOS 1989 (ETALON 1),NSO,91201.43079123,1 19751U 89001  C 91201.43079123  .00000019 +00000-0 +99999-4 0 01039\,2 19751 064.8728 145.5407 0010229 249.9053 109.9659 02.13155889019654,64.8728,0.0010229,2.13155889,145.5407,249.9053,109.9659
19751,COSMOS 1989 (ETALON 1),NSO,91202.36907107,1 19751U 89001  C 91202.36907107  .00000061 +00000-0 +00000-4 0 01047\,2 19751 064.8724 145.5094 0010213 250.0267 109.8430 02.13155915019673,64.8724,0.0010213,2.13155915,145.5094,250.0267,109.843
19751,COSMOS 1989 (ETALON 1),NSO,91202.36907248,1 19751U 89001  C 91202.36907248  .00000019 +00000-0 +99999-4 0 01030\,2 19751 064.8723 145.5092 0010226 249.9507 109.9210 02.13155924019675,64.8723,0.0010226,2.13155924,145.5092,249.9507,109.921
19751,COSMOS 1989 (ETALON 1),NSO,91202.83821117,1 19751U 89001  C 91202.83821117  .00000019 +00000-0 +99999-4 0 01054\,2 19751 064.8724 145.4941 0010214 250.0247 109.8446 02.13155914019689,64.8724,0.0010214,2.13155914,145.4941,250.0247,109.8446
19751,COSMOS 1989 (ETALON 1),NSO,91203.30735135,1 19751U 89001  C 91203.30735135  .00000019 +00000-0 +99999-4 0 01062\,2 19751 064.8725 145.4768 0010187 249.9161 109.9553 02.13156004019690,64.8725,0.0010187,2.13156004,145.4768,249.9161,109.9553
19751,COSMOS 1989 (ETALON 1),NSO,91203.77648825,1 19751U 89001  C 91203.77648825  .00000019 +00000-0 +99999-4 0 01073\,2 19751 064.8721 145.4600 0010208 249.8731 109.9973 02.13156033019707,64.8721,0.0010208,2.13156033,145.46,249.8731,109.9973
19751,COSMOS 1989 (ETALON 1),NSO,91204.71476770,1 19751U 89001  C 91204.71476770  .00000019 +00000-0 +99999-4 0 01087\,2 19751 064.8719 145.4295 0010195 249.8764 109.9909 02.13156024019726,64.8719,0.0010195,2.13156024,145.4295,249.8764,109.9909
19751,COSMOS 1989 (ETALON 1),NSO,91205.18390855,1 19751U 89001  C 91205.18390855  .00000061 +00000-0 +00000-4 0 01271\,2 19751 064.8716 145.4145 0010180 249.8859 109.9809 02.13156029019731,64.8716,0.001018,2.13156029,145.4145,249.8859,109.9809
19751,COSMOS 1989 (ETALON 1),NSO,91206.59133721,1 19751U 89001  C 91206.59133721  .00000061 +00000-0 +00000-4 0 01128\,2 19751 064.8716 145.3676 0010181 249.8803 109.9899 02.13156028019760,64.8716,0.0010181,2.13156028,145.3676,249.8803,109.9899
19751,COSMOS 1989 (ETALON 1),NSO,91207.06047949,1 19751U 89001  C 91207.06047949  .00000019 +00000-0 +99999-4 0 01136\,2 19751 064.8717 145.3520 0010178 249.8928 109.9791 02.13156031019779,64.8717,0.0010178,2.13156031,145.352,249.8928,109.9791
19751,COSMOS 1989 (ETALON 1),NSO,91207.52962171,1 19751U 89001  C 91207.52962171  .00000019 +00000-0 +99999-4 0 01152\,2 19751 064.8707 145.3370 0010200 249.9239 109.9494 02.13156067019783,64.8707,0.00102,2.13156067,145.337,249.9239,109.9494
19751,COSMOS 1989 (ETALON 1),NSO,91207.52962269,1 19751U 89001  C 91207.52962269  .00000019 +00000-0 +99999-4 0 01149\,2 19751 064.8706 145.3369 0010202 249.9221 109.9521 02.13156066019783,64.8706,0.0010202,2.13156066,145.3369,249.9221,109.9521
19751,COSMOS 1989 (ETALON 1),NSO,91209.40619770,1 19751U 89001  C 91209.40619770  .00000019 +00000-0 +99999-4 0 01177\,2 19751 064.8698 145.2739 0010213 249.8629 110.0215 02.13156083019823,64.8698,0.0010213,2.13156083,145.2739,249.8629,110.0215
